[{"OBJECT_NAME":"STARLINK-4569","OBJECT_ID":"2022-105AR","EPOCH":"2026-03-09T15:16:10.142400","MEAN_MOTION":15.05631593,"ECCENTRICITY":0.0002028,"INCLINATION":97.6053,"RA_OF_ASC_NODE":311.1164,"ARG_OF_PERICENTER":74.568,"MEAN_ANOMALY":285.5771,"EPHEMERIS_TYPE":0,"CLASSIFICATION_TYPE":"U","NORAD_CAT_ID":53687,"ELEMENT_SET_NO":999,"REV_AT_EPOCH":19329,"BSTAR":0.00015205,"MEAN_MOTION_DOT":2.133e-5,"MEAN_MOTION_DDOT":0},{"OBJECT_NAME":"PEGASUS DEB","OBJECT_ID":"1994-029AEV","EPOCH":"2026-03-08T12:20:37.202208","MEAN_MOTION":14.52178672,"ECCENTRICITY":0.02317488,"INCLINATION":81.8165,"RA_OF_ASC_NODE":159.2415,"ARG_OF_PERICENTER":279.066,"MEAN_ANOMALY":78.4379,"EPHEMERIS_TYPE":0,"CLASSIFICATION_TYPE":"U","NORAD_CAT_ID":39310,"ELEMENT_SET_NO":999,"REV_AT_EPOCH":82956,"BSTAR":0.001122164,"MEAN_MOTION_DOT":6.495e-5,"MEAN_MOTION_DDOT":0}]
